{"type": "FeatureCollection", "features": [ {"type": "Feature", "properties": {"norad_id": 34845, "name": "COSMOS 2251 DEB", "group": "cosmos-2251-debris", "lat": -55.004227883580285, "lon": -32.7699709014659, "alt_km": 734.064232532277, "timestamp": "2025-12-26T06:43:29.907093+00:00", "meta": {"OBJECT_NAME": "COSMOS 2251 DEB", "OBJECT_ID": "1993-036ABP", "EPOCH": "2025-12-24T15:25:52.110336", "MEAN_MOTION": 14.4588243, "ECCENTRICITY": 0.00226897, "INCLINATION": 74.0249, "RA_OF_ASC_NODE": 126.132, "ARG_OF_PERICENTER": 285.329, "MEAN_ANOMALY": 74.5361, "EPHEMERIS_TYPE": 0, "CLASSIFICATION_TYPE": "U", "NORAD_CAT_ID": 34845, "ELEMENT_SET_NO": 999, "REV_AT_EPOCH": 87638, "BSTAR": 0.00029040944, "MEAN_MOTION_DOT": 1.008e-05, "MEAN_MOTION_DDOT": 0}, "tle": {"line1": "1 34845U 93036ABP 25358.64296424  .00001008  00000+0  29041-3 0  9992", "line2": "2 34845  74.0249 126.1320 0022689 285.3290  74.5361 14.45882430876380"}}, "geometry": {"type": "Point", "coordinates": [-32.7699709014659, -55.004227883580285]}}, {"type": "Feature", "properties": {"norad_id": 34846, "name": "COSMOS 2251 DEB", "group": "cosmos-2251-debris", "lat": -60.40068360771405, "lon": 86.72611659454604, "alt_km": 730.9774429512163, "timestamp": "2025-12-26T06:43:29.907104+00:00", "meta": {"OBJECT_NAME": "COSMOS 2251 DEB", "OBJECT_ID": "1993-036ABQ", "EPOCH": "2025-12-25T19:38:30.732864", "MEAN_MOTION": 14.4728385, "ECCENTRICITY": 0.00262174, "INCLINATION": 74.0297, "RA_OF_ASC_NODE": 237.3166, "ARG_OF_PERICENTER": 302.1153, "MEAN_ANOMALY": 57.7461, "EPHEMERIS_TYPE": 0, "CLASSIFICATION_TYPE": "U", "NORAD_CAT_ID": 34846, "ELEMENT_SET_NO": 999, "REV_AT_EPOCH": 87593, "BSTAR": 0.00069308644, "MEAN_MOTION_DOT": 2.52e-05, "MEAN_MOTION_DDOT": 0}, "tle": {"line1": "1 34846U 93036ABQ 25359.81841126  .00002520  00000+0  69309-3 0  9999", "line2": "2 34846  74.0297 237.3166 0026217 302.1153  57.7461 14.47283850875931"}}, "geometry": {"type": "Point", "coordinates": [86.72611659454604, -60.40068360771405]}}, {"type": "Feature", "properties": {"norad_id": 34852, "name": "COSMOS 2251 DEB", "group": "cosmos-2251-debris", "lat": 7.404901582101526, "lon": 55.93881757332436, "alt_km": 781.5697932258436, "timestamp": "2025-12-26T06:43:29.907114+00:00", "meta": {"OBJECT_NAME": "COSMOS 2251 DEB", "OBJECT_ID": "1993-036ABW", "EPOCH": "2025-12-24T08:48:51.292512", "MEAN_MOTION": 14.37013481, "ECCENTRICITY": 0.00167051, "INCLINATION": 74.0323, "RA_OF_ASC_NODE": 241.5883, "ARG_OF_PERICENTER": 342.3569, "MEAN_ANOMALY": 17.7002, "EPHEMERIS_TYPE": 0, "CLASSIFICATION_TYPE": "U", "NORAD_CAT_ID": 34852, "ELEMENT_SET_NO": 999, "REV_AT_EPOCH": 87701, "BSTAR": 0.00010991472, "MEAN_MOTION_DOT": 3e-06, "MEAN_MOTION_DDOT": 0}, "tle": {"line1": "1 34852U 93036ABW 25358.36726033  .00000300  00000+0  10991-3 0  9991", "line2": "2 34852  74.0323 241.5883 0016705 342.3569  17.7002 14.37013481877017"}}, "geometry": {"type": "Point", "coordinates": [55.93881757332436, 7.404901582101526]}}, {"type": "Feature", "properties": {"norad_id": 34854, "name": "COSMOS 2251 DEB", "group": "cosmos-2251-debris", "lat": -26.764453215505476, "lon": -39.655412220564706, "alt_km": 606.1049852761998, "timestamp": "2025-12-26T06:43:29.907124+00:00", "meta": {"OBJECT_NAME": "COSMOS 2251 DEB", "OBJECT_ID": "1993-036ABY", "EPOCH": "2025-12-24T03:22:47.701632", "MEAN_MOTION": 14.76734417, "ECCENTRICITY": 0.00659344, "INCLINATION": 74.0296, "RA_OF_ASC_NODE": 136.2324, "ARG_OF_PERICENTER": 245.6439, "MEAN_ANOMALY": 113.7843, "EPHEMERIS_TYPE": 0, "CLASSIFICATION_TYPE": "U", "NORAD_CAT_ID": 34854, "ELEMENT_SET_NO": 999, "REV_AT_EPOCH": 72050, "BSTAR": 0.00083194152, "MEAN_MOTION_DOT": 6.009e-05, "MEAN_MOTION_DDOT": 0}, "tle": {"line1": "1 34854U 93036ABY 25358.14082988  .00006009  00000+0  83194-3 0  9990", "line2": "2 34854  74.0296 136.2324 0065934 245.6439 113.7843 14.76734417720500"}}, "geometry": {"type": "Point", "coordinates": [-39.655412220564706, -26.764453215505476]}}, {"type": "Feature", "properties": {"norad_id": 34856, "name": "COSMOS 2251 DEB", "group": "cosmos-2251-debris", "lat": -65.17982231531577, "lon": 18.631421251492203, "alt_km": 555.709467354397, "timestamp": "2025-12-26T06:43:29.907135+00:00", "meta": {"OBJECT_NAME": "COSMOS 2251 DEB", "OBJECT_ID": "1993-036ACA", "EPOCH": "2025-12-24T22:21:30.996000", "MEAN_MOTION": 15.06656764, "ECCENTRICITY": 0.003106, "INCLINATION": 73.996, "RA_OF_ASC_NODE": 59.7657, "ARG_OF_PERICENTER": 195.18, "MEAN_ANOMALY": 341.9359, "EPHEMERIS_TYPE": 0, "CLASSIFICATION_TYPE": "U", "NORAD_CAT_ID": 34856, "ELEMENT_SET_NO": 999, "REV_AT_EPOCH": 89295, "BSTAR": 0.0017148, "MEAN_MOTION_DOT": 0.00025776, "MEAN_MOTION_DDOT": 0}, "tle": {"line1": "1 34856U 93036ACA 25358.93160875  .00025776  00000+0  17148-2 0  9998", "line2": "2 34856  73.9960  59.7657 0031060 195.1800 341.9359 15.06656764892958"}}, "geometry": {"type": "Point", "coordinates": [18.631421251492203, -65.17982231531577]}}, {"type": "Feature", "properties": {"norad_id": 34857, "name": "COSMOS 2251 DEB", "group": "cosmos-2251-debris", "lat": 30.769582898241257, "lon": -108.82644468849008, "alt_km": 667.7673857891732, "timestamp": "2025-12-26T06:43:29.907146+00:00", "meta": {"OBJECT_NAME": "COSMOS 2251 DEB", "OBJECT_ID": "1993-036ACB", "EPOCH": "2025-12-25T22:22:17.277888", "MEAN_MOTION": 14.59019942, "ECCENTRICITY": 0.00651945, "INCLINATION": 74.0153, "RA_OF_ASC_NODE": 81.664, "ARG_OF_PERICENTER": 203.6537, "MEAN_ANOMALY": 277.2682, "EPHEMERIS_TYPE": 0, "CLASSIFICATION_TYPE": "U", "NORAD_CAT_ID": 34857, "ELEMENT_SET_NO": 999, "REV_AT_EPOCH": 88093, "BSTAR": 0.0010256266, "MEAN_MOTION_DOT": 4.934e-05, "MEAN_MOTION_DDOT": 0}, "tle": {"line1": "1 34857U 93036ACB 25359.93214442  .00004934  00000+0  10256-2 0  9996", "line2": "2 34857  74.0153  81.6640 0065194 203.6537 277.2682 14.59019942880931"}}, "geometry": {"type": "Point", "coordinates": [-108.82644468849008, 30.769582898241257]}}, {"type": "Feature", "properties": {"norad_id": 34859, "name": "COSMOS 2251 DEB", "group": "cosmos-2251-debris", "lat": -12.11385276462242, "lon": -52.07720558934522, "alt_km": 519.0739730324713, "timestamp": "2025-12-26T06:43:29.907156+00:00", "meta": {"OBJECT_NAME": "COSMOS 2251 DEB", "OBJECT_ID": "1993-036ACD", "EPOCH": "2025-12-25T03:55:54.017760", "MEAN_MOTION": 15.16596022, "ECCENTRICITY": 0.0001286, "INCLINATION": 74.0314, "RA_OF_ASC_NODE": 313.7742, "ARG_OF_PERICENTER": 32.3004, "MEAN_ANOMALY": 342.3183, "EPHEMERIS_TYPE": 0, "CLASSIFICATION_TYPE": "U", "NORAD_CAT_ID": 34859, "ELEMENT_SET_NO": 999, "REV_AT_EPOCH": 88547, "BSTAR": 0.0039257, "MEAN_MOTION_DOT": 0.00077507, "MEAN_MOTION_DDOT": 0}, "tle": {"line1": "1 34859U 93036ACD 25359.16381965  .00077507  00000+0  39257-2 0  9996", "line2": "2 34859  74.0314 313.7742 0001286  32.3004 342.3183 15.16596022885479"}}, "geometry": {"type": "Point", "coordinates": [-52.07720558934522, -12.11385276462242]}}, {"type": "Feature", "properties": {"norad_id": 34861, "name": "COSMOS 2251 DEB", "group": "cosmos-2251-debris", "lat": -8.680669345128784, "lon": 20.66673574920821, "alt_km": 554.6787641065876, "timestamp": "2025-12-26T06:43:29.907167+00:00", "meta": {"OBJECT_NAME": "COSMOS 2251 DEB", "OBJECT_ID": "1993-036ACF", "EPOCH": "2025-12-24T08:30:51.111936", "MEAN_MOTION": 15.03272413, "ECCENTRICITY": 0.00083388, "INCLINATION": 74.0171, "RA_OF_ASC_NODE": 27.1111, "ARG_OF_PERICENTER": 15.9962, "MEAN_ANOMALY": 358.949, "EPHEMERIS_TYPE": 0, "CLASSIFICATION_TYPE": "U", "NORAD_CAT_ID": 34861, "ELEMENT_SET_NO": 999, "REV_AT_EPOCH": 88267, "BSTAR": 0.002836129, "MEAN_MOTION_DOT": 0.00038649, "MEAN_MOTION_DDOT": 0}, "tle": {"line1": "1 34861U 93036ACF 25358.35475824  .00038649  00000+0  28361-2 0  9995", "line2": "2 34861  74.0171  27.1111 0008338  15.9962 358.9490 15.03272413882678"}}, "geometry": {"type": "Point", "coordinates": [20.66673574920821, -8.680669345128784]}}, {"type": "Feature", "properties": {"norad_id": 34874, "name": "COSMOS 2251 DEB", "group": "cosmos-2251-debris", "lat": -58.70113440367973, "lon": 20.816389090828853, "alt_km": 801.5820433937888, "timestamp": "2025-12-26T06:43:29.907177+00:00", "meta": {"OBJECT_NAME": "COSMOS 2251 DEB", "OBJECT_ID": "1993-036ACM", "EPOCH": "2025-12-24T22:24:14.356800", "MEAN_MOTION": 14.36365151, "ECCENTRICITY": 0.0050509, "INCLINATION": 74.0391, "RA_OF_ASC_NODE": 51.3701, "ARG_OF_PERICENTER": 72.6657, "MEAN_ANOMALY": 104.1751, "EPHEMERIS_TYPE": 0, "CLASSIFICATION_TYPE": "U", "NORAD_CAT_ID": 34874, "ELEMENT_SET_NO": 999, "REV_AT_EPOCH": 87219, "BSTAR": 0.00083514, "MEAN_MOTION_DOT": 2.455e-05, "MEAN_MOTION_DDOT": 0}, "tle": {"line1": "1 34874U 93036ACM 25358.93349950  .00002455  00000+0  83514-3 0  9991", "line2": "2 34874  74.0391  51.3701 0050509  72.6657 104.1751 14.36365151872192"}}, "geometry": {"type": "Point", "coordinates": [20.816389090828853, -58.70113440367973]}}, {"type": "Feature", "properties": {"norad_id": 34875, "name": "COSMOS 2251 DEB", "group": "cosmos-2251-debris", "lat": -60.18372832147919, "lon": -17.20394530460091, "alt_km": 724.4521457545306, "timestamp": "2025-12-26T06:43:29.907187+00:00", "meta": {"OBJECT_NAME": "COSMOS 2251 DEB", "OBJECT_ID": "1993-036ACN", "EPOCH": "2025-12-24T15:33:22.942944", "MEAN_MOTION": 14.48965081, "ECCENTRICITY": 0.00162603, "INCLINATION": 74.0438, "RA_OF_ASC_NODE": 135.9032, "ARG_OF_PERICENTER": 258.7537, "MEAN_ANOMALY": 116.0666, "EPHEMERIS_TYPE": 0, "CLASSIFICATION_TYPE": "U", "NORAD_CAT_ID": 34875, "ELEMENT_SET_NO": 999, "REV_AT_EPOCH": 87928, "BSTAR": 0.00046663388, "MEAN_MOTION_DOT": 1.744e-05, "MEAN_MOTION_DDOT": 0}, "tle": {"line1": "1 34875U 93036ACN 25358.64818221  .00001744  00000+0  46663-3 0  9996", "line2": "2 34875  74.0438 135.9032 0016260 258.7537 116.0666 14.48965081879286"}}, "geometry": {"type": "Point", "coordinates": [-17.20394530460091, -60.18372832147919]}}]}